Results
*******************************************************************************
 Revised: Jan 26, 2022              Telesto  / (Saturn)                     613
                           http://ssd.jpl.nasa.gov/?sat_phys_par
                             http://ssd.jpl.nasa.gov/?sat_elem

 SATELLITE PHYSICAL PROPERTIES:
  Radius (km)             = 16.3x11.8x9.8   Density (g cm^-3)   =  1.0
  Mass (10^22 g)          = 0.0007194       Geometric Albedo    =  1.0  
  GM (km^3/s^2)           = 0.00048         V(1,0)              = +9.1 

 SATELLITE ORBITAL DATA (mean values with respect to local Laplace plane):
  Semi-major axis, a (km) = 295.000(10^3)   Orbital period      = 1.887802 d
  Eccentricity, e         = 0.001           Rotational period   = 
  Inclination, i  (deg)   = 1.2     

 NOTE: The IAU rotational spin-pole model (defining latitude and logitude) is 
       valid only near the time of the 1981 Voyager flybys; an updated
       Cassini-based coordinate grid model is not yet published by the IAU.

      Trajectory is valid only for the interval spanned by Cassini data.
*******************************************************************************


*******************************************************************************
Ephemeris / API_USER Mon Nov 24 03:44:19 2025 Pasadena, USA      / Horizons    
*******************************************************************************
Target body name: Telesto (613)                   {source: sat441l}
Center body name: Earth (399)                     {source: DE441}
Center-site name: GEOCENTRIC
*******************************************************************************
Start time      : A.D. 2020-Jan-01 00:00:00.0000 UT      
Stop  time      : A.D. 2020-Dec-20 00:00:00.0000 UT      
Step-size       : 1440 minutes
*******************************************************************************
Target pole/equ : IAU_TELESTO                     {West-longitude positive}
Target radii    : 16.3, 11.8, 9.8 km              {Equator_a, b, pole_c}       
Center geodetic : 0.0, 0.0, -6378.137             {E-lon(deg),Lat(deg),Alt(km)}
Center cylindric: 0.0, 0.0, 0.0                   {E-lon(deg),Dxy(km),Dz(km)}
Center pole/equ : ITRF93                          {East-longitude positive}
Center radii    : 6378.137, 6378.137, 6356.752 km {Equator_a, b, pole_c}       
Target primary  : Saturn
Vis. interferer : MOON (R_eq= 1737.400) km        {source: DE441}
Rel. light bend : Sun                             {source: DE441}
Rel. lght bnd GM: 1.3271E+11 km^3/s^2                                          
Atmos refraction: NO (AIRLESS)
RA format       : HMS
Time format     : CAL 
Calendar mode   : Mixed Julian/Gregorian
EOP file        : eop.251121.p260217                                           
EOP coverage    : DATA-BASED 1962-JAN-20 TO 2025-NOV-21. PREDICTS-> 2026-FEB-16
Units conversion: 1 au= 149597870.700 km, c= 299792.458 km/s, 1 day= 86400.0 s 
Table cut-offs 1: Elevation (-90.0deg=NO ),Airmass (>38.000=NO), Daylight (NO )
Table cut-offs 2: Solar elongation (  0.0,180.0=NO ),Local Hour Angle( 0.0=NO )
Table cut-offs 3: RA/DEC angular rate (     0.0=NO )                           
**************************************************************************************************************************
 Date__(UT)__HR:MN     R.A._____(ICRF)_____DEC    APmag   S-brt             delta      deldot     S-O-T /r     S-T-O  Cnst
**************************************************************************************************************************
$$SOE
 2020-Jul-27 00:00     20 00 07.80 -20 48 54.4   18.873   6.793  8.99921405621366  12.8260033  173.7435 /T    0.6279   Sgr
 2020-Jul-28 00:00     19 59 55.63 -20 49 50.6   18.874   6.785  9.00218140518609  -6.7766110  172.7387 /T    0.7283   Sgr
 2020-Jul-29 00:00     19 59 30.97 -20 50 42.5   18.874   6.781  9.00400031101783  14.6290323  171.6867 /T    0.8340   Sgr
 2020-Jul-30 00:00     19 59 19.10 -20 51 50.6   18.875   6.780  9.00620505079298  -5.8025978  170.6818 /T    0.9354   Sgr
 2020-Jul-31 00:00     19 58 54.89 -20 52 29.6   18.876   6.785  9.00996879719841  14.9531940  169.6318 /T    1.0386   Sgr
 2020-Aug-01 00:00     19 58 42.47 -20 53 47.9   18.876   6.792  9.01144867353780  -3.3887901  168.6239 /T    1.1413   Sgr
 2020-Aug-02 00:00     19 58 19.58 -20 54 16.4   18.878   6.804  9.01701644237370  13.8960667  167.5790 /T    1.2418   Sgr
 2020-Aug-03 00:00     19 58 05.87 -20 55 41.8   18.877   6.817  9.01799174308155   0.2680975  166.5653 /T    1.3455   Sgr
 2020-Aug-04 00:00     19 57 45.03 -20 56 03.4   18.880   6.831  9.02505258860857  11.7484444  165.5280 /T    1.4433   Sgr
 2020-Aug-05 00:00     19 57 29.49 -20 57 31.5   18.879   6.842  9.02589450919835   4.7960872  164.5068 /T    1.5476   Sgr
 2020-Aug-06 00:00     19 57 11.16 -20 57 50.6   18.882   6.850  9.03401022117912   8.9471080  163.4786 /T    1.6430   Sgr
 2020-Aug-07 00:00     19 56 53.55 -20 59 16.6   18.881   6.851  9.03518748032136   9.7028931  162.4490 /T    1.7473   Sgr
 2020-Aug-08 00:00     19 56 37.89 -20 59 38.0   18.884   6.847  9.04385297572166   6.0211562  161.4302 /T    1.8406   Sgr
 2020-Aug-09 00:00     19 56 18.28 -21 00 57.3   18.884   6.837  9.04586655171501  14.4410861  160.3926 /T    1.9441   Sgr
 2020-Aug-10 00:00     19 56 05.11 -21 01 25.1   18.886   6.824  9.05457973113178   3.5141679  159.3822 /T    2.0361   Sgr
 2020-Aug-11 00:00     19 55 43.91 -21 02 33.6   18.887   6.809  9.05789140775304  18.4851307  158.3385 /T    2.1378   Sgr
 2020-Aug-12 00:00     19 55 32.75 -21 03 11.1   18.889   6.797  9.06622144576248   1.9045079  157.3344 /T    2.2292   Sgr
 2020-Aug-13 00:00     19 55 10.63 -21 04 06.3   18.890   6.786  9.07118959002374  21.4065050  156.2872 /T    2.3282   Sgr
 2020-Aug-14 00:00     19 55 00.77 -21 04 55.1   18.892   6.779  9.07883661147578   1.5492067  155.2866 /T    2.4194   Sgr
 2020-Aug-15 00:00     19 54 38.58 -21 05 36.1   18.893   6.776  9.08566480591920  22.9319900  154.2391 /T    2.5150   Sgr
 2020-Aug-16 00:00     19 54 29.20 -21 06 35.9   18.895   6.777  9.09249963620033   2.6264274  153.2389 /T    2.6064   Sgr
 2020-Aug-17 00:00     19 54 07.86 -21 07 03.5   18.897   6.782  9.10120699606149  22.9810291  152.1945 /T    2.6982   Sgr
 2020-Aug-18 00:00     19 53 58.11 -21 08 12.7   18.898   6.791  9.10728701724307   5.1108009  151.1916 /T    2.7899   Sgr
 2020-Aug-19 00:00     19 53 38.48 -21 08 29.4   18.901   6.803  9.11770529723529  21.6738054  150.1535 /T    2.8776   Sgr
 2020-Aug-20 00:00     19 53 27.65 -21 09 44.5   18.902   6.815  9.12326495363686   8.7809648  149.1454 /T    2.9693   Sgr
 2020-Aug-21 00:00     19 53 10.41 -21 09 54.1   18.905   6.829  9.13505944560571  19.3177303  148.1161 /T    3.0531   Sgr
 2020-Aug-22 00:00     19 52 58.01 -21 11 10.7   18.906   6.839  9.14047540895209  13.2476594  147.1012 /T    3.1443   Sgr
 2020-Aug-23 00:00     19 52 43.57 -21 11 17.9   18.910   6.846  9.15319057091287  16.3627429  146.0821 /T    3.2246   Sgr
 2020-Aug-24 00:00     19 52 29.39 -21 12 31.2   18.910   6.845  9.15892825000077  18.0100607  145.0600 /T    3.3146   Sgr
 2020-Aug-25 00:00     19 52 17.86 -21 12 40.5   18.914   6.840  9.17205029243554  13.3347011  144.0511 /T    3.3920   Sgr
 2020-Aug-26 00:00     19 52 02.03 -21 13 45.9   18.915   6.828  9.17859751878393  22.5231758  143.0224 /T    3.4798   Sgr
 2020-Aug-27 00:00     19 51 53.18 -21 14 01.6   18.919   6.816  9.19162402807413  10.7694480  142.0227 /T    3.5551   Sgr
 2020-Aug-28 00:00     19 51 36.11 -21 14 55.4   18.920   6.801  9.19942236429139  26.2755958  140.9893 /T    3.6399   Sgr
 2020-Aug-29 00:00     19 51 29.42 -21 15 20.3   18.923   6.790  9.21193098084932   9.1350025  139.9967 /T    3.7137   Sgr
 2020-Aug-30 00:00     19 51 11.80 -21 16 00.1   18.925   6.780  9.22131300527106  28.8613072  138.9612 /T    3.7945   Sgr
 2020-Aug-31 00:00     19 51 06.54 -21 16 35.9   18.928   6.774  9.23301679537208   8.7641956  137.9727 /T    3.8675   Sgr
 2020-Sep-01 00:00     19 50 49.21 -21 17 01.0   18.930   6.772  9.24415805189079  30.0299846  136.9383 /T    3.9438   Sgr
 2020-Sep-02 00:00     19 50 44.55 -21 17 47.3   18.933   6.774  9.25494355427583   9.8126043  135.9506 /T    4.0163   Sgr
 2020-Sep-03 00:00     19 50 28.39 -21 17 58.9   18.936   6.780  9.26783649432255  29.7266071  134.9205 /T    4.0876   Sgr
 2020-Sep-04 00:00     19 50 23.51 -21 18 53.6   18.938   6.789  9.27777710975675  12.2348385  133.9306 /T    4.1597   Sgr
 2020-Sep-05 00:00     19 50 09.33 -21 18 54.3   18.942   6.802  9.29222991953487  28.0961390  132.9076 /T    4.2261   Sgr
 2020-Sep-06 00:00     19 50 03.53 -21 19 54.0   18.943   6.815  9.30157194532089  15.7947169  131.9129 /T    4.2975   Sgr
 2020-Sep-07 00:00     19 49 51.95 -21 19 47.8   18.948   6.828  9.31723394055264  25.4618210  130.8992 /T    4.3591   Sgr
 2020-Sep-08 00:00     19 49 44.77 -21 20 48.2   18.949   6.837  9.32636159470741  20.0926603  129.8982 /T    4.4292   Sgr
 2020-Sep-09 00:00     19 49 36.17 -21 20 39.7   18.954   6.842  9.34276947662420  22.2815250  128.8948 /T    4.4868   Sgr
 2020-Sep-10 00:00     19 49 27.44 -21 21 36.0   18.955   6.840  9.35214875604508  24.6240559  127.8869 /T    4.5548   Sgr
 2020-Sep-11 00:00     19 49 21.85 -21 21 29.7   18.960   6.834  9.36878869376463  19.0828833  126.8938 /T    4.6091   Sgr
 2020-Sep-12 00:00     19 49 11.71 -21 22 17.5   18.961   6.822  9.37890122238363  28.8532756  125.8798 /T    4.6739   Sgr
 2020-Sep-13 00:00     19 49 08.87 -21 22 17.5   18.966   6.809  9.39527823210990  16.3924890  124.8957 /T    4.7257   Sgr
 2020-Sep-14 00:00     19 48 57.76 -21 22 53.2   18.968   6.795  9.40655260159966  32.2781281  123.8775 /T    4.7866   Sgr
 2020-Sep-15 00:00     19 48 57.14 -21 23 02.4   18.972   6.784  9.42225555240344  14.6598016  122.9002 /T    4.8367   Sgr
 2020-Sep-16 00:00     19 48 45.73 -21 23 23.9   18.974   6.775  9.43500525688765  34.5058598  121.8804 /T    4.8927   Sgr
